IRIDIUM 135             
1 43070U 17083A   26177.91915698  .00000028  00000+0  28103-5 0  9992
2 43070  86.3972 317.9460 0002186  92.7195 267.4251 14.34217840445544
IRIDIUM 138             
1 43071U 17083B   26178.29336999  .00000055  00000+0  12685-4 0  9993
2 43071  86.3986 317.4865 0002219  87.2381 272.9069 14.34217954445585
IRIDIUM 116             
1 43072U 17083C   26177.91281410  .00000131  00000+0  39582-4 0  9999
2 43072  86.3972 317.9346 0002166 101.8018 258.3421 14.34218164445563
IRIDIUM 130             
1 43073U 17083D   26178.29971101  .00000088  00000+0  24525-4 0  9997
2 43073  86.3979 318.0490 0002013  96.7684 263.3741 14.34217293445568
IRIDIUM 151             
1 43074U 17083E   26178.13480529  .00000006  00000+0 -50162-5 0  9998
2 43074  86.3971 317.8999 0002091  94.3871 265.7564 14.34217522445564
IRIDIUM 134             
1 43075U 17083F   26178.31239624  .00000172  00000+0  54283-4 0  9997
2 43075  86.3975 317.8337 0002129  93.9220 266.2219 14.34218904445557
IRIDIUM 137             
1 43076U 17083G   26178.11577824 -.00000015  00000+0 -12389-4 0  9992
2 43076  86.3975 318.0091 0002396 102.0285 258.1179 14.34217337445595
IRIDIUM 141             
1 43077U 17083H   26178.10943481  .00000028  00000+0  28257-5 0  9992
2 43077  86.3972 317.8415 0002205  91.5644 268.5804 14.34217742445590
IRIDIUM 153             
1 43078U 17083J   26178.27091918  .00000011  00000+0 -30981-5 0  9990
2 43078  86.3963 286.2549 0002079  90.9975 269.1459 14.34217515446724
IRIDIUM 131             
1 43079U 17083K   26178.30605534  .00000045  00000+0  91178-5 0  9991
2 43079  86.3976 317.9460 0002239  92.1765 267.9688 14.34217684445559
IRIDIUM 144             
1 43249U 18030A   26178.27725876  .00000179  00000+0  56853-4 0  9999
2 43249  86.3964 286.1810 0002201  98.1273 262.0172 14.34216944431580
IRIDIUM 149             
1 43250U 18030B   26178.28360442  .00000030  00000+0  35403-5 0  9991
2 43250  86.3963 286.1453 0002296  93.7521 266.3938 14.34217820431609
IRIDIUM 157             
1 43251U 18030C   26178.30263107  .00000089  00000+0  24544-4 0  9992
2 43251  86.3965 286.1907 0002223  94.7185 265.4265 14.34218419431588
IRIDIUM 140             
1 43252U 18030D   26178.25189026  .00000178  00000+0  56556-4 0  9991
2 43252  86.3965 286.2246 0002169  95.4564 264.6879 14.34217826431633
IRIDIUM 145             
1 43253U 18030E   26178.30897326  .00000121  00000+0  36251-4 0  9995
2 43253  86.3962 286.1728 0002223 102.7520 257.3924 14.34218626431572
IRIDIUM 146             
1 43254U 18030F   26178.28994692  .00000079  00000+0  21052-4 0  9992
2 43254  86.3963 286.1930 0002266  97.7495 262.3958 14.34217910431589
IRIDIUM 148             
1 43255U 18030G   26178.25823411  .00000018  00000+0 -76960-6 0  9994
2 43255  86.3965 286.2496 0002344  95.8377 264.3086 14.34217786431614
IRIDIUM 142             
1 43256U 18030H   26178.29628954  .00000020  00000+0  67057-7 0  9994
2 43256  86.3960 286.1224 0002169  99.9584 260.1856 14.34217678431583
IRIDIUM 150             
1 43257U 18030J   26178.26457587  .00000121  00000+0  36113-4 0  9992
2 43257  86.3966 286.2522 0002160  95.6591 264.4851 14.34218207431608
IRIDIUM 143             
1 43258U 18030K   26178.31531669  .00000239  00000+0  78369-4 0  9992
2 43258  86.3968 286.3239 0002186  98.1424 262.0020 14.34218634431547
IRIDIUM 161             
1 43478U 18047C   26178.22196316  .00000302  00000+0  83840-4 0  9991
2 43478  86.4479  84.2758 0002517  81.6979 278.4508 14.43277549426580
IRIDIUM 152             
1 43479U 18047D   26178.28803444  .00000197  00000+0  63174-4 0  9995
2 43479  86.3955  84.1093 0002277  82.1401 278.0053 14.34218286423939
IRIDIUM 147             
1 43480U 18047E   26178.22460937  .00000027  00000+0  26072-5 0  9996
2 43480  86.3957  84.1412 0002163  87.3286 272.8157 14.34217737423926
IRIDIUM 110             
1 43481U 18047F   26178.23095257  .00000004  00000+0 -57576-5 0  9996
2 43481  86.3957  84.2305 0002351  78.2886 281.8574 14.34217450423917
IRIDIUM 162             
1 43482U 18047G   26178.28499585  .00000315  00000+0  87667-4 0  9991
2 43482  86.4481  84.1403 0002282  83.2674 276.8786 14.43279398426587
IRIDIUM 160             
1 43569U 18061A   26178.17678795  .00000052  00000+0  11392-4 0  9993
2 43569  86.3955  52.6201 0002252  85.5215 274.6238 14.34217890414806
IRIDIUM 166             
1 43570U 18061B   26178.13238930  .00000019  00000+0 -24052-6 0  9997
2 43570  86.3947  52.5887 0002054  88.3142 271.8289 14.34217652414821
IRIDIUM 158             
1 43571U 18061C   26178.17044512  .00000069  00000+0  17512-4 0  9998
2 43571  86.3951  52.5830 0002151  83.9722 276.1719 14.34217550414797
IRIDIUM 165             
1 43572U 18061D   26178.19581529  .00000079  00000+0  21199-4 0  9992
2 43572  86.3954  52.6190 0002141  89.4433 270.7008 14.34217578414825
IRIDIUM 155             
1 43573U 18061E   26178.15775966  .00000078  00000+0  20782-4 0  9995
2 43573  86.3950  52.5034 0002055  84.8116 275.3315 14.34218056414788
