OBJECT_NAME,OBJECT_ID,EPOCH,MEAN_MOTION,ECCENTRICITY,INCLINATION,RA_OF_ASC_NODE,ARG_OF_PERICENTER,MEAN_ANOMALY,EPHEMERIS_TYPE,CLASSIFICATION_TYPE,NORAD_CAT_ID,ELEMENT_SET_NO,REV_AT_EPOCH,BSTAR,MEAN_MOTION_DOT,MEAN_MOTION_DDOT
IRIDIUM 135,2017-083A,2026-06-26T22:03:35.163072,14.34217840,.0002186,86.3972,317.9460,92.7195,267.4251,0,U,43070,999,44554,.28103E-5,.28E-6,0
IRIDIUM 138,2017-083B,2026-06-27T07:02:27.167136,14.34217954,.00022195,86.3986,317.4865,87.2381,272.9069,0,U,43071,999,44558,.12685184E-4,.55E-6,0
IRIDIUM 116,2017-083C,2026-06-26T21:54:27.138240,14.34218164,.0002166,86.3972,317.9346,101.8018,258.3421,0,U,43072,999,44556,.39582E-4,.131E-5,0
IRIDIUM 130,2017-083D,2026-06-27T07:11:35.031264,14.34217293,.00020139,86.3979,318.0490,96.7684,263.3741,0,U,43073,999,44556,.24524907E-4,.88E-6,0
IRIDIUM 151,2017-083E,2026-06-27T03:14:07.177056,14.34217522,.00020915,86.3971,317.8999,94.3871,265.7564,0,U,43074,999,44556,-.5016232E-5,.6E-7,0
IRIDIUM 134,2017-083F,2026-06-27T07:29:51.035136,14.34218904,.00021297,86.3975,317.8337,93.9220,266.2219,0,U,43075,999,44555,.54282865E-4,.172E-5,0
IRIDIUM 137,2017-083G,2026-06-27T02:46:43.239936,14.34217337,.00023963,86.3975,318.0091,102.0285,258.1179,0,U,43076,999,44559,-.12389282E-4,-.15E-6,0
IRIDIUM 141,2017-083H,2026-06-27T02:37:35.167584,14.34217742,.00022059,86.3972,317.8415,91.5644,268.5804,0,U,43077,999,44559,.2825713E-5,.28E-6,0
IRIDIUM 153,2017-083J,2026-06-27T06:30:07.417152,14.34217515,.00020799,86.3963,286.2549,90.9975,269.1459,0,U,43078,999,44672,-.3098123E-5,.11E-6,0
IRIDIUM 131,2017-083K,2026-06-27T07:20:43.181376,14.34217684,.00022393,86.3976,317.9460,92.1765,267.9688,0,U,43079,999,44555,.9117771E-5,.45E-6,0
IRIDIUM 144,2018-030A,2026-06-27T06:39:15.156864,14.34216944,.00022016,86.3964,286.1810,98.1273,262.0172,0,U,43249,999,43158,.56853203E-4,.179E-5,0
IRIDIUM 149,2018-030B,2026-06-27T06:48:23.421888,14.34217820,.0002296,86.3963,286.1453,93.7521,266.3938,0,U,43250,999,43160,.3540348E-5,.3E-6,0
IRIDIUM 157,2018-030C,2026-06-27T07:15:47.324448,14.34218419,.00022236,86.3965,286.1907,94.7185,265.4265,0,U,43251,999,43158,.24544412E-4,.89E-6,0
IRIDIUM 140,2018-030D,2026-06-27T06:02:43.318464,14.34217826,.0002169,86.3965,286.2246,95.4564,264.6879,0,U,43252,999,43163,.56556412E-4,.178E-5,0
IRIDIUM 145,2018-030E,2026-06-27T07:24:55.289664,14.34218626,.00022231,86.3962,286.1728,102.7520,257.3924,0,U,43253,999,43157,.36250771E-4,.121E-5,0
IRIDIUM 146,2018-030F,2026-06-27T06:57:31.413888,14.34217910,.0002266,86.3963,286.1930,97.7495,262.3958,0,U,43254,999,43158,.21052026E-4,.79E-6,0
IRIDIUM 148,2018-030G,2026-06-27T06:11:51.427104,14.34217786,.00023446,86.3965,286.2496,95.8377,264.3086,0,U,43255,999,43161,-.7696E-6,.18E-6,0
IRIDIUM 142,2018-030H,2026-06-27T07:06:39.416256,14.34217678,.00021694,86.3960,286.1224,99.9584,260.1856,0,U,43256,999,43158,.67057E-7,.2E-6,0
IRIDIUM 150,2018-030J,2026-06-27T06:20:59.355168,14.34218207,.00021603,86.3966,286.2522,95.6591,264.4851,0,U,43257,999,43160,.36112995E-4,.121E-5,0
IRIDIUM 143,2018-030K,2026-06-27T07:34:03.362016,14.34218634,.00021864,86.3968,286.3239,98.1424,262.0020,0,U,43258,999,43154,.78368903E-4,.239E-5,0
IRIDIUM 161,2018-047C,2026-06-27T05:19:37.617024,14.43277549,.00025171,86.4479,84.2758,81.6979,278.4508,0,U,43478,999,42658,.83840333E-4,.302E-5,0
IRIDIUM 152,2018-047D,2026-06-27T06:54:46.175616,14.34218286,.00022779,86.3955,84.1093,82.1401,278.0053,0,U,43479,999,42393,.63174142E-4,.197E-5,0
IRIDIUM 147,2018-047E,2026-06-27T05:23:26.249568,14.34217737,.00021636,86.3957,84.1412,87.3286,272.8157,0,U,43480,999,42392,.2607177E-5,.27E-6,0
IRIDIUM 110,2018-047F,2026-06-27T05:32:34.302048,14.34217450,.00023518,86.3957,84.2305,78.2886,281.8574,0,U,43481,999,42391,-.575761E-5,.4E-7,0
IRIDIUM 162,2018-047G,2026-06-27T06:50:23.641440,14.43279398,.00022824,86.4481,84.1403,83.2674,276.8786,0,U,43482,999,42658,.87667019E-4,.315E-5,0
IRIDIUM 160,2018-061A,2026-06-27T04:14:34.478880,14.34217890,.0002252,86.3955,52.6201,85.5215,274.6238,0,U,43569,999,41480,.11392315E-4,.52E-6,0
IRIDIUM 166,2018-061B,2026-06-27T03:10:38.435520,14.34217652,.00020544,86.3947,52.5887,88.3142,271.8289,0,U,43570,999,41482,-.240522E-6,.19E-6,0
IRIDIUM 158,2018-061C,2026-06-27T04:05:26.458368,14.34217550,.00021514,86.3951,52.5830,83.9722,276.1719,0,U,43571,999,41479,.17512047E-4,.69E-6,0
IRIDIUM 165,2018-061D,2026-06-27T04:41:58.441056,14.34217578,.00021413,86.3954,52.6190,89.4433,270.7008,0,U,43572,999,41482,.21199356E-4,.79E-6,0
IRIDIUM 155,2018-061E,2026-06-27T03:47:10.434624,14.34218056,.00020559,86.3950,52.5034,84.8116,275.3315,0,U,43573,999,41478,.20781943E-4,.78E-6,0
